FLOCK 4G-5              
1 62663U 25009BG  26068.45638436  .00011278  00000+0  40688-3 0  9997
2 62663  97.4058 151.2478 0002094 314.5072  45.5996 15.28679529 63699
STARLINK-36483          
1 67330U 26002AB  26068.08702658  .00034652  00000+0  12629-2 0  9998
2 67330  43.0008 328.9343 0001510 287.9973  72.0714 15.27577963 11140
